[{"OBJECT_NAME":"AEROCUBE 6B","OBJECT_ID":"2014-033AN","EPOCH":"2026-03-02T09:55:14.316960","MEAN_MOTION":14.98096023,"ECCENTRICITY":0.00377402,"INCLINATION":97.7101,"RA_OF_ASC_NODE":229.2346,"ARG_OF_PERICENTER":7.0565,"MEAN_ANOMALY":353.118,"EPHEMERIS_TYPE":0,"CLASSIFICATION_TYPE":"U","NORAD_CAT_ID":40046,"ELEMENT_SET_NO":999,"REV_AT_EPOCH":63076,"BSTAR":0.00078808294,"MEAN_MOTION_DOT":9.412e-5,"MEAN_MOTION_DDOT":0},{"OBJECT_NAME":"CANX-4","OBJECT_ID":"2014-034C","EPOCH":"2026-03-02T14:48:43.272000","MEAN_MOTION":14.81039637,"ECCENTRICITY":0.0012852,"INCLINATION":98.3289,"RA_OF_ASC_NODE":292.933,"ARG_OF_PERICENTER":359.535,"MEAN_ANOMALY":0.5847,"EPHEMERIS_TYPE":0,"CLASSIFICATION_TYPE":"U","NORAD_CAT_ID":40055,"ELEMENT_SET_NO":999,"REV_AT_EPOCH":62875,"BSTAR":0.0001867,"MEAN_MOTION_DOT":1.392e-5,"MEAN_MOTION_DDOT":0},{"OBJECT_NAME":"CANX-5","OBJECT_ID":"2014-034D","EPOCH":"2026-03-02T14:48:13.260960","MEAN_MOTION":14.81056364,"ECCENTRICITY":0.0012845,"INCLINATION":98.3292,"RA_OF_ASC_NODE":292.9698,"ARG_OF_PERICENTER":359.7765,"MEAN_ANOMALY":0.3439,"EPHEMERIS_TYPE":0,"CLASSIFICATION_TYPE":"U","NORAD_CAT_ID":40056,"ELEMENT_SET_NO":999,"REV_AT_EPOCH":61956,"BSTAR":0.0001876,"MEAN_MOTION_DOT":1.399e-5,"MEAN_MOTION_DDOT":0},{"OBJECT_NAME":"UKUBE-1","OBJECT_ID":"2014-037F","EPOCH":"2026-03-02T12:50:10.251168","MEAN_MOTION":15.11595248,"ECCENTRICITY":0.0002579,"INCLINATION":98.4215,"RA_OF_ASC_NODE":53.7696,"ARG_OF_PERICENTER":118.7825,"MEAN_ANOMALY":241.3662,"EPHEMERIS_TYPE":0,"CLASSIFICATION_TYPE":"U","NORAD_CAT_ID":40074,"ELEMENT_SET_NO":999,"REV_AT_EPOCH":63243,"BSTAR":0.00070205,"MEAN_MOTION_DOT":0.00011856,"MEAN_MOTION_DDOT":0},{"OBJECT_NAME":"BRITE-PL2 (HEWELIUSZ)","OBJECT_ID":"2014-049B","EPOCH":"2026-03-02T18:36:30.221856","MEAN_MOTION":14.9413522,"ECCENTRICITY":0.0015457,"INCLINATION":97.8979,"RA_OF_ASC_NODE":173.0662,"ARG_OF_PERICENTER":102.6596,"MEAN_ANOMALY":257.6353,"EPHEMERIS_TYPE":0,"CLASSIFICATION_TYPE":"U","NORAD_CAT_ID":40119,"ELEMENT_SET_NO":999,"REV_AT_EPOCH":62555,"BSTAR":0.00030314,"MEAN_MOTION_DOT":3.191e-5,"MEAN_MOTION_DDOT":0},{"OBJECT_NAME":"AEROCUBE 5C","OBJECT_ID":"2015-058B","EPOCH":"2026-03-02T19:15:43.215264","MEAN_MOTION":14.90779353,"ECCENTRICITY":0.0131116,"INCLINATION":64.7658,"RA_OF_ASC_NODE":233.3833,"ARG_OF_PERICENTER":105.2436,"MEAN_ANOMALY":256.3216,"EPHEMERIS_TYPE":0,"CLASSIFICATION_TYPE":"U","NORAD_CAT_ID":40965,"ELEMENT_SET_NO":999,"REV_AT_EPOCH":34979,"BSTAR":0.00044256,"MEAN_MOTION_DOT":4.97e-5,"MEAN_MOTION_DDOT":0},{"OBJECT_NAME":"AEROCUBE 7","OBJECT_ID":"2015-058C","EPOCH":"2026-03-02T19:50:20.322240","MEAN_MOTION":14.94798472,"ECCENTRICITY":0.0121121,"INCLINATION":64.7616,"RA_OF_ASC_NODE":217.7319,"ARG_OF_PERICENTER":104.3736,"MEAN_ANOMALY":257.0859,"EPHEMERIS_TYPE":0,"CLASSIFICATION_TYPE":"U","NORAD_CAT_ID":40966,"ELEMENT_SET_NO":999,"REV_AT_EPOCH":35005,"BSTAR":0.00054682,"MEAN_MOTION_DOT":6.735e-5,"MEAN_MOTION_DDOT":0},{"OBJECT_NAME":"FOX-1A (AO-85)","OBJECT_ID":"2015-058D","EPOCH":"2026-03-02T19:33:28.591200","MEAN_MOTION":14.90282183,"ECCENTRICITY":0.0129272,"INCLINATION":64.7735,"RA_OF_ASC_NODE":249.3858,"ARG_OF_PERICENTER":98.6956,"MEAN_ANOMALY":262.8824,"EPHEMERIS_TYPE":0,"CLASSIFICATION_TYPE":"U","NORAD_CAT_ID":40967,"ELEMENT_SET_NO":999,"REV_AT_EPOCH":9771,"BSTAR":0.00043042,"MEAN_MOTION_DOT":4.741e-5,"MEAN_MOTION_DDOT":0},{"OBJECT_NAME":"SINOD-D 1","OBJECT_ID":"2015-058E","EPOCH":"2026-03-02T17:59:39.492960","MEAN_MOTION":14.94950297,"ECCENTRICITY":0.0117642,"INCLINATION":64.7738,"RA_OF_ASC_NODE":231.9966,"ARG_OF_PERICENTER":96.0763,"MEAN_ANOMALY":265.377,"EPHEMERIS_TYPE":0,"CLASSIFICATION_TYPE":"U","NORAD_CAT_ID":40968,"ELEMENT_SET_NO":999,"REV_AT_EPOCH":10074,"BSTAR":0.00054959,"MEAN_MOTION_DOT":6.742e-5,"MEAN_MOTION_DDOT":0},{"OBJECT_NAME":"SNAP-3 ALICE","OBJECT_ID":"2015-058G","EPOCH":"2026-03-02T12:15:53.989056","MEAN_MOTION":15.4262339,"ECCENTRICITY":0.00374842,"INCLINATION":64.7561,"RA_OF_ASC_NODE":107.5162,"ARG_OF_PERICENTER":72.1229,"MEAN_ANOMALY":288.399,"EPHEMERIS_TYPE":0,"CLASSIFICATION_TYPE":"U","NORAD_CAT_ID":40970,"ELEMENT_SET_NO":999,"REV_AT_EPOCH":10034,"BSTAR":0.001390995,"MEAN_MOTION_DOT":0.00062737,"MEAN_MOTION_DDOT":0},{"OBJECT_NAME":"LMRST-SAT","OBJECT_ID":"2015-058H","EPOCH":"2026-03-02T19:27:30.067488","MEAN_MOTION":14.8991453,"ECCENTRICITY":0.013141,"INCLINATION":64.7741,"RA_OF_ASC_NODE":245.5394,"ARG_OF_PERICENTER":100.6441,"MEAN_ANOMALY":260.9501,"EPHEMERIS_TYPE":0,"CLASSIFICATION_TYPE":"U","NORAD_CAT_ID":40971,"ELEMENT_SET_NO":999,"REV_AT_EPOCH":9770,"BSTAR":0.00043495,"MEAN_MOTION_DOT":4.771e-5,"MEAN_MOTION_DDOT":0},{"OBJECT_NAME":"SNAP-3 EDDIE","OBJECT_ID":"2015-058J","EPOCH":"2026-03-02T12:17:52.738944","MEAN_MOTION":15.43618812,"ECCENTRICITY":0.00387871,"INCLINATION":64.7482,"RA_OF_ASC_NODE":98.9458,"ARG_OF_PERICENTER":76.7819,"MEAN_ANOMALY":283.7641,"EPHEMERIS_TYPE":0,"CLASSIFICATION_TYPE":"U","NORAD_CAT_ID":40972,"ELEMENT_SET_NO":999,"REV_AT_EPOCH":10247,"BSTAR":0.0012778613,"MEAN_MOTION_DOT":0.00059688,"MEAN_MOTION_DDOT":0},{"OBJECT_NAME":"PROPCUBE 3","OBJECT_ID":"2015-058K","EPOCH":"2026-03-02T20:02:20.803200","MEAN_MOTION":14.93437636,"ECCENTRICITY":0.0123995,"INCLINATION":64.7675,"RA_OF_ASC_NODE":224.6184,"ARG_OF_PERICENTER":102.4301,"MEAN_ANOMALY":259.0721,"EPHEMERIS_TYPE":0,"CLASSIFICATION_TYPE":"U","NORAD_CAT_ID":40973,"ELEMENT_SET_NO":999,"REV_AT_EPOCH":9891,"BSTAR":0.00051162,"MEAN_MOTION_DOT":6.101e-5,"MEAN_MOTION_DDOT":0},{"OBJECT_NAME":"BISONSAT","OBJECT_ID":"2015-058L","EPOCH":"2026-03-02T14:55:13.193472","MEAN_MOTION":15.13574185,"ECCENTRICITY":0.0079559,"INCLINATION":64.761,"RA_OF_ASC_NODE":157.5219,"ARG_OF_PERICENTER":94.1495,"MEAN_ANOMALY":266.8726,"EPHEMERIS_TYPE":0,"CLASSIFICATION_TYPE":"U","NORAD_CAT_ID":40974,"ELEMENT_SET_NO":999,"REV_AT_EPOCH":9947,"BSTAR":0.00073496,"MEAN_MOTION_DOT":0.00014146,"MEAN_MOTION_DDOT":0},{"OBJECT_NAME":"SNAP-3 JIMI","OBJECT_ID":"2015-058M","EPOCH":"2026-03-02T16:52:04.029024","MEAN_MOTION":15.01002788,"ECCENTRICITY":0.010597,"INCLINATION":64.7656,"RA_OF_ASC_NODE":196.3627,"ARG_OF_PERICENTER":99.4922,"MEAN_ANOMALY":261.819,"EPHEMERIS_TYPE":0,"CLASSIFICATION_TYPE":"U","NORAD_CAT_ID":40975,"ELEMENT_SET_NO":999,"REV_AT_EPOCH":9823,"BSTAR":0.00063499,"MEAN_MOTION_DOT":8.999e-5,"MEAN_MOTION_DDOT":0},{"OBJECT_NAME":"PROPCUBE 1 (FLORA)","OBJECT_ID":"2015-058N","EPOCH":"2026-03-02T19:16:19.942176","MEAN_MOTION":14.8857013,"ECCENTRICITY":0.0130534,"INCLINATION":64.7732,"RA_OF_ASC_NODE":264.7902,"ARG_OF_PERICENTER":102.9071,"MEAN_ANOMALY":258.6657,"EPHEMERIS_TYPE":0,"CLASSIFICATION_TYPE":"U","NORAD_CAT_ID":40976,"ELEMENT_SET_NO":999,"REV_AT_EPOCH":10042,"BSTAR":0.00039297,"MEAN_MOTION_DOT":4.129e-5,"MEAN_MOTION_DDOT":0},{"OBJECT_NAME":"SINOD-D 3","OBJECT_ID":"2015-058P","EPOCH":"2026-03-02T18:42:49.685472","MEAN_MOTION":14.93111923,"ECCENTRICITY":0.0118975,"INCLINATION":64.7708,"RA_OF_ASC_NODE":247.8755,"ARG_OF_PERICENTER":100.987,"MEAN_ANOMALY":260.4653,"EPHEMERIS_TYPE":0,"CLASSIFICATION_TYPE":"U","NORAD_CAT_ID":40977,"ELEMENT_SET_NO":999,"REV_AT_EPOCH":9886,"BSTAR":0.00052373,"MEAN_MOTION_DOT":6.12e-5,"MEAN_MOTION_DDOT":0}]
