AEROCUBE 6B             
1 40046U 14033AN  26061.41336015  .00009412  00000+0  78808-3 0  9992
2 40046  97.7101 229.2346 0037740   7.0565 353.1180 14.98096023630768
CANX-4                  
1 40055U 14034C   26061.61716750  .00001392  00000+0  18670-3 0  9993
2 40055  98.3289 292.9330 0012852 359.5350   0.5847 14.81039637628755
CANX-5                  
1 40056U 14034D   26061.61682015  .00001399  00000+0  18760-3 0  9997
2 40056  98.3292 292.9698 0012845 359.7765   0.3439 14.81056364619561
UKUBE-1                 
1 40074U 14037F   26061.53484087  .00011856  00000+0  70205-3 0  9991
2 40074  98.4215  53.7696 0002579 118.7825 241.3662 15.11595248632430
BRITE-PL2 (HEWELIUSZ)   
1 40119U 14049B   26061.77534979  .00003191  00000+0  30314-3 0  9996
2 40119  97.8979 173.0662 0015457 102.6596 257.6353 14.94135220625557
AEROCUBE 5C             
1 40965U 15058B   26061.80258351  .00004970  00000+0  44256-3 0  9993
2 40965  64.7658 233.3833 0131116 105.2436 256.3216 14.90779353349796
AEROCUBE 7              
1 40966U 15058C   26061.82662410  .00006735  00000+0  54682-3 0  9996
2 40966  64.7616 217.7319 0121121 104.3736 257.0859 14.94798472350053
FOX-1A (AO-85)          
1 40967U 15058D   26061.81491425  .00004741  00000+0  43042-3 0  9995
2 40967  64.7735 249.3858 0129272  98.6956 262.8824 14.90282183 97719
SINOD-D 1               
1 40968U 15058E   26061.74976265  .00006742  00000+0  54959-3 0  9990
2 40968  64.7738 231.9966 0117642  96.0763 265.3770 14.94950297100744
SNAP-3 ALICE            
1 40970U 15058G   26061.51104154  .00062737  00000+0  13910-2 0  9995
2 40970  64.7561 107.5162 0037484  72.1229 288.3990 15.42623390100344
LMRST-SAT               
1 40971U 15058H   26061.81076467  .00004771  00000+0  43495-3 0  9990
2 40971  64.7741 245.5394 0131410 100.6441 260.9501 14.89914530 97700
SNAP-3 EDDIE            
1 40972U 15058J   26061.51241596  .00059688  00000+0  12779-2 0  9992
2 40972  64.7482  98.9458 0038787  76.7819 283.7641 15.43618812102473
PROPCUBE 3              
1 40973U 15058K   26061.83496300  .00006101  00000+0  51162-3 0  9995
2 40973  64.7675 224.6184 0123995 102.4301 259.0721 14.93437636 98916
BISONSAT                
1 40974U 15058L   26061.62168048  .00014146  00000+0  73496-3 0  9990
2 40974  64.7610 157.5219 0079559  94.1495 266.8726 15.13574185 99473
SNAP-3 JIMI             
1 40975U 15058M   26061.70282441  .00008999  00000+0  63499-3 0  9995
2 40975  64.7656 196.3627 0105970  99.4922 261.8190 15.01002788 98233
PROPCUBE 1 (FLORA)      
1 40976U 15058N   26061.80300859  .00004129  00000+0  39297-3 0  9991
2 40976  64.7732 264.7902 0130534 102.9071 258.6657 14.88570130100426
SINOD-D 3               
1 40977U 15058P   26061.77974173  .00006120  00000+0  52373-3 0  9997
2 40977  64.7708 247.8755 0118975 100.9870 260.4653 14.93111923 98866
